start=new Date('2023-01-25T00:00:00.000Z').valueOf();
sats=[{"BSTAR":"0.00007255600000","TLE_LINE1":"1 45541U 20025L   23024.43752012  .00000799  00000-0  72556-4 0  9997","COUNTRY_CODE":"US","OBJECT_NAME":"STARLINK-1369","ECCENTRICITY":"0.00013990","MEAN_MOTION":"15.06394941","REV_AT_EPOCH":"15264","LAUNCH_DATE":"2020-04-22","MEAN_MOTION_DOT":"0.00000799","TLE_LINE2":"2 45541  53.0533 185.4203 0001399  88.5970 271.5179 15.06394941152644","TIME_SYSTEM":"UTC","RCS_SIZE":"LARGE","DECAY_DATE":null,"OBJECT_ID":"2020-025L","PERIAPSIS":"546.260","APOAPSIS":"548.198","CLASSIFICATION_TYPE":"U","REF_FRAME":"TEME","OBJECT_TYPE":"PAYLOAD","MEAN_MOTION_DDOT":"0.0000000000000","CENTER_NAME":"EARTH","ARG_OF_PERICENTER":"88.5970","PERIOD":"95.592","MEAN_ELEMENT_THEORY":"SGP4","SITE":"AFETR","EPOCH":"2023-01-24T10:30:01.738368","FILE":"3759711","MEAN_ANOMALY":"271.5179","NORAD_CAT_ID":"45541","RA_OF_ASC_NODE":"185.4203","SEMIMAJOR_AXIS":"6925.364","INCLINATION":"53.0533","GP_ID":"223632568","EPHEMERIS_TYPE":"0","ELEMENT_SET_NO":"999"},{"TLE_LINE1":"1 45542U 20025M   23023.74087591  .00000366  00000-0  43462-4 0  9998","BSTAR":"0.00004346200000","LAUNCH_DATE":"2020-04-22","REV_AT_EPOCH":"15253","ECCENTRICITY":"0.00011260","MEAN_MOTION":"15.06394110","OBJECT_NAME":"STARLINK-1371","COUNTRY_CODE":"US","OBJECT_ID":"2020-025M","DECAY_DATE":null,"RCS_SIZE":"LARGE","TIME_SYSTEM":"UTC","TLE_LINE2":"2 45542  53.0533 188.5435 0001126  87.5481 272.5637 15.06394110152536","MEAN_MOTION_DOT":"0.00000366","REF_FRAME":"TEME","CLASSIFICATION_TYPE":"U","APOAPSIS":"548.011","PERIAPSIS":"546.452","SITE":"AFETR","PERIOD":"95.593","MEAN_ELEMENT_THEORY":"SGP4","ARG_OF_PERICENTER":"87.5481","CENTER_NAME":"EARTH","MEAN_MOTION_DDOT":"0.0000000000000","OBJECT_TYPE":"PAYLOAD","FILE":"3759054","EPOCH":"2023-01-23T17:46:51.678624","SEMIMAJOR_AXIS":"6925.367","RA_OF_ASC_NODE":"188.5435","MEAN_ANOMALY":"272.5637","NORAD_CAT_ID":"45542","ELEMENT_SET_NO":"999","GP_ID":"223618361","EPHEMERIS_TYPE":"0","INCLINATION":"53.0533"},{"COUNTRY_CODE":"US","LAUNCH_DATE":"2020-04-22","REV_AT_EPOCH":"15268","ECCENTRICITY":"0.00013940","MEAN_MOTION":"15.06413578","OBJECT_NAME":"STARLINK-1372","BSTAR":"0.00032102000000","TLE_LINE1":"1 45543U 20025N   23024.70658715  .00004505  00000-0  32102-3 0  9995","PERIAPSIS":"546.207","REF_FRAME":"TEME","CLASSIFICATION_TYPE":"U","APOAPSIS":"548.137","TLE_LINE2":"2 45543  53.0532 184.2017 0001394  93.1315 266.9833 15.06413578152682","MEAN_MOTION_DOT":"0.00004505","OBJECT_ID":"2020-025N","DECAY_DATE":null,"RCS_SIZE":"LARGE","TIME_SYSTEM":"UTC","EPOCH":"2023-01-24T16:57:29.129760","FILE":"3760014","CENTER_NAME":"EARTH","MEAN_MOTION_DDOT":"0.0000000000000","OBJECT_TYPE":"PAYLOAD","SITE":"AFETR","MEAN_ELEMENT_THEORY":"SGP4","PERIOD":"95.591","ARG_OF_PERICENTER":"93.1315","INCLINATION":"53.0532","ELEMENT_SET_NO":"999","GP_ID":"223638291","EPHEMERIS_TYPE":"0","NORAD_CAT_ID":"45543","MEAN_ANOMALY":"266.9833","RA_OF_ASC_NODE":"184.2017","SEMIMAJOR_AXIS":"6925.307"},{"SEMIMAJOR_AXIS":"6925.381","RA_OF_ASC_NODE":"185.3182","NORAD_CAT_ID":"45544","MEAN_ANOMALY":"268.3936","ELEMENT_SET_NO":"999","EPHEMERIS_TYPE":"0","GP_ID":"223633008","INCLINATION":"53.0538","ARG_OF_PERICENTER":"91.7192","SITE":"AFETR","PERIOD":"95.593","MEAN_ELEMENT_THEORY":"SGP4","OBJECT_TYPE":"PAYLOAD","CENTER_NAME":"EARTH","MEAN_MOTION_DDOT":"0.0000000000000","FILE":"3759733","EPOCH":"2023-01-24T11:01:52.381920","TIME_SYSTEM":"UTC","OBJECT_ID":"2020-025P","RCS_SIZE":"LARGE","DECAY_DATE":null,"MEAN_MOTION_DOT":"0.00002618","TLE_LINE2":"2 45544  53.0538 185.3182 0001214  91.7192 268.3936 15.06389380152630","CLASSIFICATION_TYPE":"U","APOAPSIS":"548.087","REF_FRAME":"TEME","PERIAPSIS":"546.405","TLE_LINE1":"1 45544U 20025P   23024.45963405  .00002618  00000-0  19465-3 0  9993","BSTAR":"0.00019465000000","MEAN_MOTION":"15.06389380","ECCENTRICITY":"0.00012140","OBJECT_NAME":"STARLINK-1373","LAUNCH_DATE":"2020-04-22","REV_AT_EPOCH":"15263","COUNTRY_CODE":"US"},{"TLE_LINE1":"1 45545U 20025Q   23024.47806069  .00005244  00000-0  37065-3 0  9992","BSTAR":"0.00037065000000","ECCENTRICITY":"0.00015510","MEAN_MOTION":"15.06399672","OBJECT_NAME":"STARLINK-1374","LAUNCH_DATE":"2020-04-22","REV_AT_EPOCH":"15265","COUNTRY_CODE":"US","TIME_SYSTEM":"UTC","OBJECT_ID":"2020-025Q","DECAY_DATE":null,"RCS_SIZE":"LARGE","MEAN_MOTION_DOT":"0.00005244","TLE_LINE2":"2 45545  53.0528 185.2297 0001551  92.5363 267.5803 15.06399672152650","CLASSIFICATION_TYPE":"U","APOAPSIS":"548.289","REF_FRAME":"TEME","PERIAPSIS":"546.140","ARG_OF_PERICENTER":"92.5363","SITE":"AFETR","PERIOD":"95.592","MEAN_ELEMENT_THEORY":"SGP4","OBJECT_TYPE":"PAYLOAD","CENTER_NAME":"EARTH","MEAN_MOTION_DDOT":"0.0000000000000","FILE":"3759802","EPOCH":"2023-01-24T11:28:24.443616","RA_OF_ASC_NODE":"185.2297","SEMIMAJOR_AXIS":"6925.350","NORAD_CAT_ID":"45545","MEAN_ANOMALY":"267.5803","ELEMENT_SET_NO":"999","GP_ID":"223634432","EPHEMERIS_TYPE":"0","INCLINATION":"53.0528"},{"INCLINATION":"53.0535","EPHEMERIS_TYPE":"0","GP_ID":"223632811","ELEMENT_SET_NO":"999","NORAD_CAT_ID":"45546","MEAN_ANOMALY":"268.6559","RA_OF_ASC_NODE":"185.1742","SEMIMAJOR_AXIS":"6925.358","EPOCH":"2023-01-24T11:44:20.140800","FILE":"3759733","MEAN_MOTION_DDOT":"0.0000000000000","CENTER_NAME":"EARTH","OBJECT_TYPE":"PAYLOAD","PERIOD":"95.592","MEAN_ELEMENT_THEORY":"SGP4","SITE":"AFETR","ARG_OF_PERICENTER":"91.4549","PERIAPSIS":"546.506","REF_FRAME":"TEME","APOAPSIS":"547.940","CLASSIFICATION_TYPE":"U","TLE_LINE2":"2 45546  53.0535 185.1742 0001035  91.4549 268.6559 15.06396992152656","MEAN_MOTION_DOT":"0.00001253","DECAY_DATE":null,"RCS_SIZE":"LARGE","OBJECT_ID":"2020-025R","TIME_SYSTEM":"UTC","COUNTRY_CODE":"US","REV_AT_EPOCH":"15265","LAUNCH_DATE":"2020-04-22","OBJECT_NAME":"STARLINK-1375","MEAN_MOTION":"15.06396992","ECCENTRICITY":"0.00010350","BSTAR":"0.00010299000000","TLE_LINE1":"1 45546U 20025R   23024.48912200  .00001253  00000-0  10299-3 0  9995"},{"BSTAR":"0.00000010731000","TLE_LINE1":"1 45547U 20025S   23024.68449225 -.00000280  00000-0  10731-6 0  9994","COUNTRY_CODE":"US","LAUNCH_DATE":"2020-04-22","REV_AT_EPOCH":"15268","ECCENTRICITY":"0.00010930","MEAN_MOTION":"15.06386243","OBJECT_NAME":"STARLINK-1377","TLE_LINE2":"2 45547  53.0518 184.3080 0001093  89.6745 270.4369 15.06386243152686","MEAN_MOTION_DOT":"-0.00000280","OBJECT_ID":"2020-025S","RCS_SIZE":"LARGE","DECAY_DATE":null,"TIME_SYSTEM":"UTC","PERIAPSIS":"546.499","REF_FRAME":"TEME","CLASSIFICATION_TYPE":"U","APOAPSIS":"548.013","CENTER_NAME":"EARTH","MEAN_MOTION_DDOT":"0.0000000000000","OBJECT_TYPE":"PAYLOAD","SITE":"AFETR","PERIOD":"95.593","MEAN_ELEMENT_THEORY":"SGP4","ARG_OF_PERICENTER":"89.6745","EPOCH":"2023-01-24T16:25:40.130400","FILE":"3760015","NORAD_CAT_ID":"45547","MEAN_ANOMALY":"270.4369","SEMIMAJOR_AXIS":"6925.391","RA_OF_ASC_NODE":"184.3080","INCLINATION":"53.0518","ELEMENT_SET_NO":"999","EPHEMERIS_TYPE":"0","GP_ID":"223638300"},{"OBJECT_TYPE":"PAYLOAD","CENTER_NAME":"EARTH","MEAN_MOTION_DDOT":"0.0000000000000","ARG_OF_PERICENTER":"90.8574","SITE":"AFETR","MEAN_ELEMENT_THEORY":"SGP4","PERIOD":"95.592","EPOCH":"2023-01-24T18:38:20.339520","FILE":"3760034","NORAD_CAT_ID":"45548","MEAN_ANOMALY":"269.2572","RA_OF_ASC_NODE":"183.8859","SEMIMAJOR_AXIS":"6925.344","INCLINATION":"53.0543","ELEMENT_SET_NO":"999","GP_ID":"223638511","EPHEMERIS_TYPE":"0","BSTAR":"0.00021192000000","TLE_LINE1":"1 45548U 20025T   23024.77662430  .00002877  00000-0  21192-3 0  9993","COUNTRY_CODE":"US","MEAN_MOTION":"15.06401503","ECCENTRICITY":"0.00013700","OBJECT_NAME":"STARLINK-1378","LAUNCH_DATE":"2020-04-22","REV_AT_EPOCH":"15269","MEAN_MOTION_DOT":"0.00002877","TLE_LINE2":"2 45548  53.0543 183.8859 0001370  90.8574 269.2572 15.06401503152695","TIME_SYSTEM":"UTC","OBJECT_ID":"2020-025T","RCS_SIZE":"LARGE","DECAY_DATE":null,"PERIAPSIS":"546.260","CLASSIFICATION_TYPE":"U","APOAPSIS":"548.158","REF_FRAME":"TEME"},{"PERIAPSIS":"546.164","CLASSIFICATION_TYPE":"U","APOAPSIS":"548.269","REF_FRAME":"TEME","MEAN_MOTION_DOT":"0.00004173","TLE_LINE2":"2 45550  53.0545 184.0991 0001520  72.3831 287.7324 15.06399019152674","TIME_SYSTEM":"UTC","OBJECT_ID":"2020-025V","RCS_SIZE":"LARGE","DECAY_DATE":null,"COUNTRY_CODE":"US","MEAN_MOTION":"15.06399019","ECCENTRICITY":"0.00015200","OBJECT_NAME":"STARLINK-1390","LAUNCH_DATE":"2020-04-22","REV_AT_EPOCH":"15267","BSTAR":"0.00029886000000","TLE_LINE1":"1 45550U 20025V   23024.72776129  .00004173  00000-0  29886-3 0  9991","INCLINATION":"53.0545","ELEMENT_SET_NO":"999","GP_ID":"223638838","EPHEMERIS_TYPE":"0","NORAD_CAT_ID":"45550","MEAN_ANOMALY":"287.7324","RA_OF_ASC_NODE":"184.0991","SEMIMAJOR_AXIS":"6925.352","EPOCH":"2023-01-24T17:27:58.575456","FILE":"3760024","OBJECT_TYPE":"PAYLOAD","CENTER_NAME":"EARTH","MEAN_MOTION_DDOT":"0.0000000000000","ARG_OF_PERICENTER":"72.3831","SITE":"AFETR","PERIOD":"95.592","MEAN_ELEMENT_THEORY":"SGP4"},{"EPOCH":"2023-01-24T15:56:27.223008","FILE":"3760018","CENTER_NAME":"EARTH","MEAN_MOTION_DDOT":"0.0000000000000","OBJECT_TYPE":"PAYLOAD","SITE":"AFETR","PERIOD":"95.593","MEAN_ELEMENT_THEORY":"SGP4","ARG_OF_PERICENTER":"80.7154","INCLINATION":"53.0533","ELEMENT_SET_NO":"999","GP_ID":"223638223","EPHEMERIS_TYPE":"0","NORAD_CAT_ID":"45551","MEAN_ANOMALY":"279.3978","RA_OF_ASC_NODE":"164.4065","SEMIMAJOR_AXIS":"6925.375","COUNTRY_CODE":"US","LAUNCH_DATE":"2020-04-22","REV_AT_EPOCH":"15293","ECCENTRICITY":"0.00012680","MEAN_MOTION":"15.06391473","OBJECT_NAME":"STARLINK-1294","BSTAR":"0.00024341000000","TLE_LINE1":"1 45551U 20025W   23024.66420397  .00003345  00000-0  24341-3 0  9999","PERIAPSIS":"546.362","REF_FRAME":"TEME","CLASSIFICATION_TYPE":"U","APOAPSIS":"548.118","TLE_LINE2":"2 45551  53.0533 164.4065 0001268  80.7154 279.3978 15.06391473152933","MEAN_MOTION_DOT":"0.00003345","OBJECT_ID":"2020-025W","DECAY_DATE":null,"RCS_SIZE":"LARGE","TIME_SYSTEM":"UTC"}];
